{"type": "FeatureCollection", "features": [ {"type": "Feature", "properties": {"norad_id": 66550, "name": "CZ-7A R/B", "group": "last-30-days", "lat": -2.3394846237142537, "lon": -96.49814732762705, "alt_km": 30491.702549261, "timestamp": "2025-12-07T05:38:08.684892+00:00", "meta": {"OBJECT_NAME": "CZ-7A R/B", "OBJECT_ID": "2025-277B", "EPOCH": "2025-12-05T16:08:57.677856", "MEAN_MOTION": 2.46607958, "ECCENTRICITY": 0.71883751, "INCLINATION": 14.4096, "RA_OF_ASC_NODE": 273.3314, "ARG_OF_PERICENTER": 182.4898, "MEAN_ANOMALY": 169.6754, "EPHEMERIS_TYPE": 0, "CLASSIFICATION_TYPE": "U", "NORAD_CAT_ID": 66550, "ELEMENT_SET_NO": 999, "REV_AT_EPOCH": 16, "BSTAR": 0.0024987939, "MEAN_MOTION_DOT": 0.01162886, "MEAN_MOTION_DDOT": 1.281739e-06}, "tle": {"line1": "1 66550U 25277B   25339.67288979  .01162886  12817-5  24988-2 0  9992", "line2": "2 66550  14.4096 273.3314 7188375 182.4898 169.6754  2.46607958   162"}}, "geometry": {"type": "Point", "coordinates": [-96.49814732762705, -2.3394846237142537]}}, {"type": "Feature", "properties": {"norad_id": 66551, "name": "UNKNOWN", "group": "last-30-days", "lat": 26.079731965949943, "lon": 12.44380869754799, "alt_km": 338.537721088308, "timestamp": "2025-12-07T05:38:08.684905+00:00", "meta": {"OBJECT_NAME": "UNKNOWN", "OBJECT_ID": "2025-271AE", "EPOCH": "2025-12-02T16:00:03.000096", "MEAN_MOTION": 15.87051116, "ECCENTRICITY": 7.17e-05, "INCLINATION": 53.1571, "RA_OF_ASC_NODE": 236.7807, "ARG_OF_PERICENTER": 110.7411, "MEAN_ANOMALY": 313.9012, "EPHEMERIS_TYPE": 0, "CLASSIFICATION_TYPE": "U", "NORAD_CAT_ID": 66551, "ELEMENT_SET_NO": 999, "REV_AT_EPOCH": 262, "BSTAR": -0.0074303, "MEAN_MOTION_DOT": -0.01709685, "MEAN_MOTION_DDOT": 0}, "tle": {"line1": "1 66551U 25271AE  25336.66670139 -.01709685  00000+0 -74303-2 0  9993", "line2": "2 66551  53.1571 236.7807 0000717 110.7411 313.9012 15.87051116  2624"}}, "geometry": {"type": "Point", "coordinates": [12.44380869754799, 26.079731965949943]}}, {"type": "Feature", "properties": {"norad_id": 66554, "name": "GLOBAL-33", "group": "last-30-days", "lat": -41.99409543246124, "lon": -0.10020162968174226, "alt_km": 475.43488851784605, "timestamp": "2025-12-07T05:38:08.684915+00:00", "meta": {"OBJECT_NAME": "GLOBAL-33", "OBJECT_ID": "2025-267A", "EPOCH": "2025-12-06T14:22:17.045760", "MEAN_MOTION": 15.31425219, "ECCENTRICITY": 0.00050423, "INCLINATION": 42.0197, "RA_OF_ASC_NODE": 92.4404, "ARG_OF_PERICENTER": 8.7102, "MEAN_ANOMALY": 351.3822, "EPHEMERIS_TYPE": 0, "CLASSIFICATION_TYPE": "U", "NORAD_CAT_ID": 66554, "ELEMENT_SET_NO": 999, "REV_AT_EPOCH": 246, "BSTAR": 0.00069557364, "MEAN_MOTION_DOT": 0.00021383, "MEAN_MOTION_DDOT": 0}, "tle": {"line1": "1 66554U 25267A   25340.59880840  .00021383  00000+0  69557-3 0  9995", "line2": "2 66554  42.0197  92.4404 0005042   8.7102 351.3822 15.31425219  2462"}}, "geometry": {"type": "Point", "coordinates": [-0.10020162968174226, -41.99409543246124]}}, {"type": "Feature", "properties": {"norad_id": 66555, "name": "ELECTRON KICK STAGE R/B", "group": "last-30-days", "lat": -28.238912449253405, "lon": 52.04099084537503, "alt_km": 468.45309973517305, "timestamp": "2025-12-07T05:38:08.684939+00:00", "meta": {"OBJECT_NAME": "ELECTRON KICK STAGE R/B", "OBJECT_ID": "2025-267B", "EPOCH": "2025-12-06T14:11:19.744800", "MEAN_MOTION": 15.32375133, "ECCENTRICITY": 0.00070081, "INCLINATION": 42.0184, "RA_OF_ASC_NODE": 92.3831, "ARG_OF_PERICENTER": 7.6662, "MEAN_ANOMALY": 352.4282, "EPHEMERIS_TYPE": 0, "CLASSIFICATION_TYPE": "U", "NORAD_CAT_ID": 66555, "ELEMENT_SET_NO": 999, "REV_AT_EPOCH": 246, "BSTAR": 0.0011819859, "MEAN_MOTION_DOT": 0.00037718, "MEAN_MOTION_DDOT": 0}, "tle": {"line1": "1 66555U 25267B   25340.59120075  .00037718  00000+0  11820-2 0  9991", "line2": "2 66555  42.0184  92.3831 0007008   7.6662 352.4282 15.32375133  2467"}}, "geometry": {"type": "Point", "coordinates": [52.04099084537503, -28.238912449253405]}}, {"type": "Feature", "properties": {"norad_id": 66557, "name": "STARLINK-35699", "group": "last-30-days", "lat": -42.48747283374331, "lon": 52.86094715827173, "alt_km": 391.66914721469766, "timestamp": "2025-12-07T05:38:08.684951+00:00", "meta": {"OBJECT_NAME": "STARLINK-35699", "OBJECT_ID": "2025-268A", "EPOCH": "2025-12-06T14:00:01.999872", "MEAN_MOTION": 15.62108104, "ECCENTRICITY": 0.00013295, "INCLINATION": 43.0001, "RA_OF_ASC_NODE": 157.3356, "ARG_OF_PERICENTER": 262.9312, "MEAN_ANOMALY": 294.6087, "EPHEMERIS_TYPE": 0, "CLASSIFICATION_TYPE": "U", "NORAD_CAT_ID": 66557, "ELEMENT_SET_NO": 999, "REV_AT_EPOCH": 367, "BSTAR": -0.025302469, "MEAN_MOTION_DOT": -0.02002901, "MEAN_MOTION_DDOT": 0}, "tle": {"line1": "1 66557U 25268A   25340.58335648 -.02002901  00000+0 -25302-1 0  9996", "line2": "2 66557  43.0001 157.3356 0001329 262.9312 294.6087 15.62108104  3679"}}, "geometry": {"type": "Point", "coordinates": [52.86094715827173, -42.48747283374331]}}, {"type": "Feature", "properties": {"norad_id": 66558, "name": "STARLINK-35695", "group": "last-30-days", "lat": -42.6986647551083, "lon": 55.441980068785085, "alt_km": 391.69830219195956, "timestamp": "2025-12-07T05:38:08.684962+00:00", "meta": {"OBJECT_NAME": "STARLINK-35695", "OBJECT_ID": "2025-268B", "EPOCH": "2025-12-06T14:00:01.999872", "MEAN_MOTION": 15.62103988, "ECCENTRICITY": 0.00012905, "INCLINATION": 43, "RA_OF_ASC_NODE": 157.3309, "ARG_OF_PERICENTER": 266.0387, "MEAN_ANOMALY": 293.4202, "EPHEMERIS_TYPE": 0, "CLASSIFICATION_TYPE": "U", "NORAD_CAT_ID": 66558, "ELEMENT_SET_NO": 999, "REV_AT_EPOCH": 367, "BSTAR": -0.025231237, "MEAN_MOTION_DOT": -0.01997645, "MEAN_MOTION_DDOT": 0}, "tle": {"line1": "1 66558U 25268B   25340.58335648 -.01997645  00000+0 -25231-1 0  9995", "line2": "2 66558  43.0000 157.3309 0001290 266.0387 293.4202 15.62103988  3672"}}, "geometry": {"type": "Point", "coordinates": [55.441980068785085, -42.6986647551083]}}, {"type": "Feature", "properties": {"norad_id": 66559, "name": "STARLINK-35419", "group": "last-30-days", "lat": -42.851613128808815, "lon": 58.03839128305798, "alt_km": 391.6364928515386, "timestamp": "2025-12-07T05:38:08.684973+00:00", "meta": {"OBJECT_NAME": "STARLINK-35419", "OBJECT_ID": "2025-268C", "EPOCH": "2025-12-06T14:00:01.999872", "MEAN_MOTION": 15.62108715, "ECCENTRICITY": 0.00013879, "INCLINATION": 43.0002, "RA_OF_ASC_NODE": 157.3269, "ARG_OF_PERICENTER": 262.8098, "MEAN_ANOMALY": 298.5612, "EPHEMERIS_TYPE": 0, "CLASSIFICATION_TYPE": "U", "NORAD_CAT_ID": 66559, "ELEMENT_SET_NO": 999, "REV_AT_EPOCH": 368, "BSTAR": -0.025284204, "MEAN_MOTION_DOT": -0.0200172, "MEAN_MOTION_DDOT": 0}, "tle": {"line1": "1 66559U 25268C   25340.58335648 -.02001720  00000+0 -25284-1 0  9995", "line2": "2 66559  43.0002 157.3269 0001387 262.8098 298.5612 15.62108715  3685"}}, "geometry": {"type": "Point", "coordinates": [58.03839128305798, -42.851613128808815]}}, {"type": "Feature", "properties": {"norad_id": 66560, "name": "STARLINK-35411", "group": "last-30-days", "lat": -42.944762028545014, "lon": 60.64499723281787, "alt_km": 391.64976260860385, "timestamp": "2025-12-07T05:38:08.684983+00:00", "meta": {"OBJECT_NAME": "STARLINK-35411", "OBJECT_ID": "2025-268D", "EPOCH": "2025-12-06T14:00:01.999872", "MEAN_MOTION": 15.62104978, "ECCENTRICITY": 0.00013908, "INCLINATION": 42.9997, "RA_OF_ASC_NODE": 157.3228, "ARG_OF_PERICENTER": 260.3162, "MEAN_ANOMALY": 302.9758, "EPHEMERIS_TYPE": 0, "CLASSIFICATION_TYPE": "U", "NORAD_CAT_ID": 66560, "ELEMENT_SET_NO": 999, "REV_AT_EPOCH": 368, "BSTAR": -0.025259579, "MEAN_MOTION_DOT": -0.01999755, "MEAN_MOTION_DDOT": 0}, "tle": {"line1": "1 66560U 25268D   25340.58335648 -.01999755  00000+0 -25260-1 0  9994", "line2": "2 66560  42.9997 157.3228 0001390 260.3162 302.9758 15.62104978  3680"}}, "geometry": {"type": "Point", "coordinates": [60.64499723281787, -42.944762028545014]}}, {"type": "Feature", "properties": {"norad_id": 66561, "name": "STARLINK-35305", "group": "last-30-days", "lat": -42.953295785428374, "lon": 65.86814843604208, "alt_km": 391.6678748604345, "timestamp": "2025-12-07T05:38:08.684993+00:00", "meta": {"OBJECT_NAME": "STARLINK-35305", "OBJECT_ID": "2025-268E", "EPOCH": "2025-12-06T14:00:01.999872", "MEAN_MOTION": 15.62105963, "ECCENTRICITY": 0.0001387, "INCLINATION": 42.9995, "RA_OF_ASC_NODE": 157.3123, "ARG_OF_PERICENTER": 259.9945, "MEAN_ANOMALY": 307.1314, "EPHEMERIS_TYPE": 0, "CLASSIFICATION_TYPE": "U", "NORAD_CAT_ID": 66561, "ELEMENT_SET_NO": 999, "REV_AT_EPOCH": 363, "BSTAR": -0.02527016, "MEAN_MOTION_DOT": -0.02000555, "MEAN_MOTION_DDOT": 0}, "tle": {"line1": "1 66561U 25268E   25340.58335648 -.02000555  00000+0 -25270-1 0  9998", "line2": "2 66561  42.9995 157.3123 0001387 259.9945 307.1314 15.62105963  3637"}}, "geometry": {"type": "Point", "coordinates": [65.86814843604208, -42.953295785428374]}}, {"type": "Feature", "properties": {"norad_id": 66562, "name": "STARLINK-35579", "group": "last-30-days", "lat": -42.97884482297046, "lon": 63.25648951295535, "alt_km": 391.7097053951329, "timestamp": "2025-12-07T05:38:08.685006+00:00", "meta": {"OBJECT_NAME": "STARLINK-35579", "OBJECT_ID": "2025-268F", "EPOCH": "2025-12-06T14:00:01.999872", "MEAN_MOTION": 15.62105813, "ECCENTRICITY": 0.00013247, "INCLINATION": 42.9996, "RA_OF_ASC_NODE": 157.3166, "ARG_OF_PERICENTER": 259.382, "MEAN_ANOMALY": 305.8275, "EPHEMERIS_TYPE": 0, "CLASSIFICATION_TYPE": "U", "NORAD_CAT_ID": 66562, "ELEMENT_SET_NO": 999, "REV_AT_EPOCH": 368, "BSTAR": -0.025272093, "MEAN_MOTION_DOT": -0.02000632, "MEAN_MOTION_DDOT": 0}, "tle": {"line1": "1 66562U 25268F   25340.58335648 -.02000632  00000+0 -25272-1 0  9997", "line2": "2 66562  42.9996 157.3166 0001324 259.3820 305.8275 15.62105813  3683"}}, "geometry": {"type": "Point", "coordinates": [63.25648951295535, -42.97884482297046]}}]}